LYNK TOWER 5            
1 59121U 24043Z   26068.92489786  .00009048  00000+0  31902-3 0  9994
2 59121  97.5458 204.7305 0010406 234.6422 125.3846 15.29454506111860
STARLINK-35948          
1 66633U 25271S   26068.47021056  .00027834  00000+0  94805-3 0  9990
2 66633  53.1581 140.9150 0001221  80.2539 279.8599 15.30210809 17536
