[{"OBJECT_NAME":"LYNK TOWER 5","OBJECT_ID":"2024-043Z","EPOCH":"2026-03-09T22:11:51.175104","MEAN_MOTION":15.29454506,"ECCENTRICITY":0.00104056,"INCLINATION":97.5458,"RA_OF_ASC_NODE":204.7305,"ARG_OF_PERICENTER":234.6422,"MEAN_ANOMALY":125.3846,"EPHEMERIS_TYPE":0,"CLASSIFICATION_TYPE":"U","NORAD_CAT_ID":59121,"ELEMENT_SET_NO":999,"REV_AT_EPOCH":11186,"BSTAR":0.00031901545,"MEAN_MOTION_DOT":9.048e-5,"MEAN_MOTION_DDOT":0},{"OBJECT_NAME":"STARLINK-35948","OBJECT_ID":"2025-271S","EPOCH":"2026-03-09T11:17:06.192384","MEAN_MOTION":15.30210809,"ECCENTRICITY":0.00012214,"INCLINATION":53.1581,"RA_OF_ASC_NODE":140.915,"ARG_OF_PERICENTER":80.2539,"MEAN_ANOMALY":279.8599,"EPHEMERIS_TYPE":0,"CLASSIFICATION_TYPE":"U","NORAD_CAT_ID":66633,"ELEMENT_SET_NO":999,"REV_AT_EPOCH":1753,"BSTAR":0.00094805321,"MEAN_MOTION_DOT":0.00027834,"MEAN_MOTION_DDOT":0}]
